     2              NAVIGATION DATA                         RINEX VERSION / TYPE
CCRINEXN V1.6.0 UX  CDDIS               30-JUN-05 02:51     PGM / RUN BY / DATE 
IGS BROADCAST EPHEMERIS FILE                                COMMENT             
    0.4657E-08  0.1490E-07 -0.5960E-07 -0.1192E-06          ION ALPHA           
    0.8192E+05  0.8192E+05 -0.6554E+05 -0.5243E+06          ION BETA            
   -0.558793544769E-08-0.257571741713E-13   503808     1329 DELTA-UTC: A0,A1,T,W
    13                                                      LEAP SECONDS        
                                                            END OF HEADER       
19 05  6 29 15 59 44.0-0.232509337366E-04-0.568434188608E-12 0.000000000000E+00
    0.124000000000E+03 0.560312500000E+02 0.442054127615E-08-0.309408567780E+01
    0.281818211079E-05 0.339990493376E-02 0.103581696749E-04 0.515370866013E+04
    0.316784000000E+06 0.102445483208E-06-0.952678293161E+00-0.260770320892E-07
    0.958815227188E+00 0.175968750000E+03-0.162184398712E+01-0.794675958586E-08
    0.128219626576E-09 0.100000000000E+01 0.132900000000E+04 0.000000000000E+00
    0.200000000000E+01 0.000000000000E+00-0.144354999065E-07 0.124000000000E+03
    0.313938000000E+06 0.400000000000E+01 0.000000000000E+00 0.000000000000E+00
21 05  6 29 15 59 44.0 0.111110508442E-03 0.227373675443E-11 0.000000000000E+00
    0.198000000000E+03 0.433437500000E+02 0.513557106001E-08-0.670901816382E+00
    0.225380063057E-05 0.101423789747E-01 0.415183603764E-05 0.515361971474E+04
    0.316784000000E+06 0.149011611938E-06 0.802781182144E-01-0.100582838059E-06
    0.947949409006E+00 0.289437500000E+03-0.310208583257E+01-0.860642992092E-08
    0.136791412197E-09 0.100000000000E+01 0.132900000000E+04 0.000000000000E+00
    0.200000000000E+01 0.000000000000E+00-0.116415321827E-07 0.198000000000E+03
    0.310068000000E+06 0.400000000000E+01 0.000000000000E+00 0.000000000000E+00
27 05  6 29 15 59 44.0 0.522471964359E-05 0.136424205266E-11 0.000000000000E+00
    0.700000000000E+01-0.393750000000E+01 0.469162399640E-08-0.165062110571E+01
   -0.162050127983E-06 0.190963076893E-01 0.584870576859E-05 0.515358113670E+04
    0.316784000000E+06 0.409781932831E-06 0.312023810630E+01 0.670552253723E-07
    0.954341380858E+00 0.259000000000E+03-0.202926009199E+01-0.804104922769E-08
    0.192150860998E-09 0.000000000000E+00 0.132900000000E+04 0.000000000000E+00
    0.200000000000E+01 0.000000000000E+00-0.419095158577E-08 0.700000000000E+01
    0.316590000000E+06 0.400000000000E+01 0.000000000000E+00 0.000000000000E+00
31 05  6 29 15 59 44.0 0.148592516780E-05 0.295585778076E-11 0.000000000000E+00
    0.850000000000E+02 0.472187500000E+02 0.494913472276E-08-0.967743425004E+00
    0.288523733616E-05 0.119525424670E-01 0.966340303421E-05 0.515366020966E+04
    0.316784000000E+06 0.335276126862E-07-0.106599523708E+01 0.247731804848E-06
    0.935197201849E+00 0.180500000000E+03 0.112447360547E+01-0.832927551919E-08
    0.967897459671E-10 0.100000000000E+01 0.132900000000E+04 0.000000000000E+00
    0.240000000000E+01 0.630000000000E+02-0.605359673500E-08 0.850000000000E+02
    0.312996000000E+06 0.400000000000E+01 0.000000000000E+00 0.000000000000E+00
 1 05  6 29 16  0  0.0 0.411099288613E-03 0.204636307899E-11 0.000000000000E+00
    0.215000000000E+03-0.229375000000E+02 0.393087802256E-08 0.860619292728E+00
   -0.114738941193E-05 0.582696066704E-02 0.965595245361E-05 0.515364953041E+04
    0.316800000000E+06-0.819563865662E-07 0.216462851299E+01 0.298023223877E-07
    0.984305391219E+00 0.208843750000E+03-0.168695789298E+01-0.788425698238E-08
    0.161792453591E-09 0.000000000000E+00 0.132900000000E+04 0.000000000000E+00
    0.000000000000E+00 0.000000000000E+00-0.325962901115E-08 0.215000000000E+03
    0.309780000000E+06 0.000000000000E+00 0.000000000000E+00 0.000000000000E+00
 2 05  6 29 16  0  0.0-0.262768007815E-04-0.227373675443E-12 0.000000000000E+00
    0.130000000000E+03 0.559062500000E+02 0.490127558637E-08 0.233917235432E+01
    0.276416540146E-05 0.930994772352E-02 0.426173210144E-05 0.515357835960E+04
    0.316800000000E+06 0.145286321640E-06 0.380595839630E-01-0.502914190292E-07
    0.954710330260E+00 0.292343750000E+03 0.187015214593E+01-0.823998608564E-08
   -0.110718897601E-10 0.100000000000E+01 0.132900000000E+04 0.000000000000E+00
    0.280000000000E+01 0.000000000000E+00-0.172294676304E-07 0.386000000000E+03
    0.309618000000E+06 0.400000000000E+01 0.000000000000E+00 0.000000000000E+00
 3 05  6 29 16  0  0.0 0.129928812385E-04 0.318323145621E-11 0.000000000000E+00
    0.110000000000E+03 0.400000000000E+02 0.515450041992E-08 0.147884723832E+01
    0.208988785744E-05 0.687317259144E-02 0.107027590275E-04 0.515364017105E+04
    0.316800000000E+06-0.558793544769E-07-0.109368832460E+01 0.819563865662E-07
    0.926617525248E+00 0.152656250000E+03 0.592088313232E+00-0.841713632180E-08
   -0.142863093678E-11 0.100000000000E+01 0.132900000000E+04 0.000000000000E+00
    0.280000000000E+01 0.000000000000E+00-0.419095158577E-08 0.878000000000E+03
    0.310068000000E+06 0.400000000000E+01 0.000000000000E+00 0.000000000000E+00
 4 05  6 29 16  0  0.0 0.123471021652E-03-0.250111042988E-10 0.000000000000E+00
    0.211000000000E+03 0.515312500000E+02 0.492091926175E-08-0.146893558359E+01
    0.240094959736E-05 0.697139790282E-02 0.466033816338E-05 0.515365245819E+04
    0.316800000000E+06 0.763684511185E-07 0.579937065507E-01-0.670552253723E-07
    0.954347472449E+00 0.283781250000E+03 0.488454361170E-01-0.841963642594E-08
    0.181793286706E-09 0.000000000000E+00 0.132900000000E+04 0.000000000000E+00
    0.000000000000E+00 0.000000000000E+00-0.605359673500E-08 0.211000000000E+03
    0.310230000000E+06 0.000000000000E+00 0.000000000000E+00 0.000000000000E+00
 5 05  6 29 16  0  0.0 0.110503751785E-03 0.295585778076E-11 0.000000000000E+00
    0.225000000000E+03-0.354062500000E+02 0.508806908136E-08-0.175312688169E+01
   -0.186450779438E-05 0.623081403319E-02 0.795722007751E-05 0.515378949165E+04
    0.316800000000E+06 0.137835741043E-06-0.213491336108E+01-0.409781932831E-07
    0.936638117640E+00 0.212312500000E+03 0.953343031432E+00-0.821427072878E-08
   -0.228223792151E-09 0.000000000000E+00 0.132900000000E+04 0.000000000000E+00
    0.100000000000E+01 0.000000000000E+00-0.419095158577E-08 0.225000000000E+03
    0.310050000000E+06 0.000000000000E+00 0.000000000000E+00 0.000000000000E+00
 6 05  6 29 16  0  0.0 0.669162720442E-03 0.339923644788E-10 0.000000000000E+00
    0.580000000000E+02 0.660000000000E+02 0.495592071970E-08-0.558519267495E+00
    0.348128378391E-05 0.639768713154E-02 0.101588666439E-04 0.515377815628E+04
    0.316800000000E+06 0.000000000000E+00-0.103765129292E+01 0.137835741043E-06
    0.934150002663E+00 0.172000000000E+03-0.191008796182E+01-0.833820446254E-08
    0.158220876249E-09 0.100000000000E+01 0.132900000000E+04 0.000000000000E+00
    0.200000000000E+01 0.000000000000E+00-0.465661287308E-08 0.314000000000E+03
    0.309618000000E+06 0.400000000000E+01 0.000000000000E+00 0.000000000000E+00
 8 05  6 29 16  0  0.0-0.335313379765E-04-0.113686837722E-11 0.000000000000E+00
    0.113000000000E+03-0.120312500000E+02 0.445947146917E-08-0.475137915287E+00
   -0.758096575737E-06 0.929675158113E-02 0.634416937828E-05 0.515371500588E+04
    0.316800000000E+06-0.316649675369E-07-0.306618261472E+01-0.182539224625E-06
    0.969279939566E+00 0.263093750000E+03 0.255043221663E+01-0.816605443466E-08
    0.140005831805E-09 0.100000000000E+01 0.132900000000E+04 0.000000000000E+00
    0.400000000000E+01 0.000000000000E+00-0.372529029846E-08 0.625000000000E+03
    0.309618000000E+06 0.400000000000E+01 0.000000000000E+00 0.000000000000E+00
 9 05  6 29 16  0  0.0-0.502974726260E-04-0.181898940355E-11 0.000000000000E+00
    0.232000000000E+03-0.903125000000E+01 0.494806324955E-08-0.883827184596E+00
   -0.251457095146E-06 0.169730980415E-01 0.586733222008E-05 0.515365707397E+04
    0.316800000000E+06-0.204890966415E-07-0.314080390668E+01 0.339001417160E-06
    0.956569538218E+00 0.263312500000E+03 0.115474060079E+01-0.852464079979E-08
    0.950039572962E-10 0.100000000000E+01 0.132900000000E+04 0.000000000000E+00
    0.200000000000E+01 0.000000000000E+00-0.558793544769E-08 0.232000000000E+03
    0.312558000000E+06 0.400000000000E+01 0.000000000000E+00 0.000000000000E+00
10 05  6 29 16  0  0.0 0.661099329591E-04 0.682121026330E-12 0.000000000000E+00
    0.207000000000E+03-0.407187500000E+02 0.426839208138E-08 0.273164055829E+01
   -0.218488276005E-05 0.652178702876E-02 0.667572021484E-05 0.515368452644E+04
    0.316800000000E+06-0.117346644402E-06 0.110283381695E+01-0.353902578354E-07
    0.977348414073E+00 0.261125000000E+03 0.369504418999E+00-0.789532887214E-08
   -0.222509268404E-09 0.100000000000E+01 0.132900000000E+04 0.000000000000E+00
    0.200000000000E+01 0.000000000000E+00-0.232830643654E-08 0.463000000000E+03
    0.309618000000E+06 0.400000000000E+01 0.000000000000E+00 0.000000000000E+00
11 05  6 29 16  0  0.0 0.240743625909E-03 0.386535248253E-11 0.000000000000E+00
    0.480000000000E+02 0.645312500000E+02 0.616597112316E-08 0.567304709375E-01
    0.337511301041E-05 0.420663354453E-02 0.488199293613E-05 0.515367144585E+04
    0.316800000000E+06 0.130385160446E-07-0.893662963621E-01 0.279396772385E-07
    0.901585054156E+00 0.253781250000E+03 0.238891821798E+00-0.902787604727E-08
    0.113576159474E-09 0.000000000000E+00 0.132900000000E+04 0.000000000000E+00
    0.000000000000E+00 0.000000000000E+00-0.121071934700E-07 0.816000000000E+03
    0.310020000000E+06 0.000000000000E+00 0.000000000000E+00 0.000000000000E+00
